{
  "type": "Feature",
  "properties": {
    "id": "city_circuit",
    "name": "City Circuit",
    "description": "An urban cycling route through parks and bike lanes in the heart of the city",
    "distance_km": 8.7,
    "difficulty": "moderate"
  },
  "geometry": {
    "type": "LineString",
    "coordinates": [
      [34.7817, 32.0806, 15],
      [34.7850, 32.0820, 22],
      [34.7880, 32.0850, 35],
      [34.7900, 32.0880, 48],
      [34.7890, 32.0910, 55],
      [34.7860, 32.0940, 62],
      [34.7820, 32.0960, 58],
      [34.7780, 32.0950, 45],
      [34.7750, 32.0920, 38],
      [34.7740, 32.0880, 28],
      [34.7760, 32.0840, 20],
      [34.7790, 32.0815, 18],
      [34.7817, 32.0806, 15]
    ]
  }
}
