{
  "type": "Feature",
  "properties": {
    "id": "coastal_trail",
    "name": "Coastal Trail",
    "description": "A scenic ride along the Mediterranean coastline with stunning sea views",
    "distance_km": 12.5,
    "difficulty": "easy",
    "route_number": 11
  },
  "geometry": {
    "type": "LineString",
    "coordinates": [
      [34.7518, 32.0853, 5],
      [34.7525, 32.0870, 8],
      [34.7540, 32.0895, 12],
      [34.7560, 32.0920, 18],
      [34.7585, 32.0945, 25],
      [34.7610, 32.0970, 32],
      [34.7640, 32.1000, 28],
      [34.7675, 32.1035, 22],
      [34.7710, 32.1070, 35],
      [34.7750, 32.1100, 42],
      [34.7790, 32.1130, 38],
      [34.7830, 32.1165, 30],
      [34.7870, 32.1200, 25]
    ]
  }
}
