{
  "type": "FeatureCollection",
  "properties": {
    "id": "mountain_loop",
    "name": "Tel Aviv to Haifa Coastal Route",
    "description": "A scenic coastal ride from Tel Aviv to Haifa along the Mediterranean shoreline",
    "distance_km": 95.0,
    "difficulty": "moderate",
    "route_number": 14,
    "total_stages": 3
  },
  "features": [
    {
      "type": "Feature",
      "properties": {
        "stage": 1,
        "name": "Tel Aviv to Netanya",
        "description": "Start from Tel Aviv along the coastal plain through Herzliya and up to Netanya",
        "distance_km": 32.0,
        "elevation_gain": 45,
        "difficulty": "easy"
      },
      "geometry": {
        "type": "LineString",
        "coordinates": [
          [34.7818, 32.0853, 15],
          [34.7850, 32.0920, 12],
          [34.7880, 32.1000, 10],
          [34.7920, 32.1100, 8],
          [34.7960, 32.1200, 10],
          [34.8000, 32.1320, 12],
          [34.8030, 32.1450, 15],
          [34.8050, 32.1580, 18],
          [34.8080, 32.1700, 20],
          [34.8100, 32.1850, 22],
          [34.8120, 32.2000, 18],
          [34.8140, 32.2150, 15],
          [34.8170, 32.2300, 12],
          [34.8200, 32.2450, 14],
          [34.8240, 32.2600, 16],
          [34.8280, 32.2750, 18],
          [34.8320, 32.2900, 20],
          [34.8360, 32.3050, 22],
          [34.8400, 32.3200, 20],
          [34.8450, 32.3350, 18],
          [34.8500, 32.3500, 15],
          [34.8550, 32.3650, 12],
          [34.8610, 32.3800, 10]
        ]
      }
    },
    {
      "type": "Feature",
      "properties": {
        "stage": 2,
        "name": "Netanya to Caesarea",
        "description": "Continue north through the Sharon plain, passing ancient Caesarea archaeological site",
        "distance_km": 28.0,
        "elevation_gain": 35,
        "difficulty": "easy"
      },
      "geometry": {
        "type": "LineString",
        "coordinates": [
          [34.8610, 32.3800, 10],
          [34.8660, 32.3950, 12],
          [34.8710, 32.4100, 15],
          [34.8760, 32.4250, 18],
          [34.8820, 32.4400, 20],
          [34.8880, 32.4550, 18],
          [34.8940, 32.4700, 15],
          [34.9000, 32.4850, 12],
          [34.9050, 32.5000, 10],
          [34.9100, 32.5150, 8],
          [34.9140, 32.5300, 6],
          [34.9180, 32.5450, 5],
          [34.9220, 32.5600, 8],
          [34.9260, 32.5750, 10],
          [34.9300, 32.5900, 12],
          [34.9340, 32.6050, 10],
          [34.9380, 32.6200, 8]
        ]
      }
    },
    {
      "type": "Feature",
      "properties": {
        "stage": 3,
        "name": "Caesarea to Haifa",
        "description": "Final stretch into Haifa, climbing towards Mount Carmel with views of the bay",
        "distance_km": 35.0,
        "elevation_gain": 180,
        "difficulty": "moderate"
      },
      "geometry": {
        "type": "LineString",
        "coordinates": [
          [34.9380, 32.6200, 8],
          [34.9420, 32.6350, 12],
          [34.9460, 32.6500, 18],
          [34.9500, 32.6650, 25],
          [34.9540, 32.6800, 32],
          [34.9580, 32.6950, 40],
          [34.9620, 32.7100, 48],
          [34.9660, 32.7200, 55],
          [34.9700, 32.7300, 65],
          [34.9740, 32.7400, 75],
          [34.9780, 32.7500, 85],
          [34.9820, 32.7600, 95],
          [34.9850, 32.7700, 105],
          [34.9870, 32.7800, 115],
          [34.9890, 32.7850, 125],
          [34.9896, 32.7940, 130]
        ]
      }
    }
  ]
}
